NORAD_CAT_ID,OBJECT_NAME,OBJECT_TYPE,EPOCH,MEAN_MOTION,ECCENTRICITY,INCLINATION,RA_OF_ASC_NODE,ARG_OF_PERICENTER,MEAN_ANOMALY,BSTAR,MEAN_MOTION_DOT,MEAN_MOTION_DDOT,TLE_LINE0,TLE_LINE1,TLE_LINE2,SEMIMAJOR_AXIS,PERIOD,APOGEE,PERIGEE,DECAYED
49763.0,STARLINK-3198,PAYLOAD,2022-08-02 12:02:09,15.08836803,0.0001561,53.2185,283.2356,52.8968,307.2166,1.365e-05,-7.1e-07,0.0,0 STARLINK-3198,1 49763U 21115AR  22214.50149693 -.00000071  00000-0  13650-4 0  9995,2 49763  53.2185 283.2356 0001561  52.8968 307.2166 15.08836803 38249,6917.89,95.438,540.835,538.675,0.0
49763.0,STARLINK-3198,PAYLOAD,2022-08-03 11:52:56,15.08837092,0.0001598,53.2181,278.7749,52.76600000000001,307.3478,0.00011788,1.588e-05,0.0,0 STARLINK-3198,1 49763U 21115AR  22215.49509533  .00001588  00000-0  11788-3 0  9999,2 49763  53.2181 278.7749 0001598  52.7660 307.3478 15.08837092 37289,6917.889,95.438,540.86,538.649,0.0
49763.0,STARLINK-3198,PAYLOAD,2022-08-03 16:39:05,15.08838255,0.0001609,53.218,277.8828,52.8309,307.2829,0.00012106,1.639e-05,0.0,0 STARLINK-3198,1 49763U 21115AR  22215.69381496  .00001639  00000-0  12106-3 0  9999,2 49763  53.2180 277.8828 0001609  52.8309 307.2829 15.08838255 37315,6917.886,95.438,540.864,538.638,0.0
49763.0,STARLINK-3198,PAYLOAD,2022-08-04 13:19:05,15.08847033,0.0001613,53.2179,274.0171,53.4849,306.6292,0.00012404,1.687e-05,0.0,0 STARLINK-3198,1 49763U 21115AR  22216.55492907  .00001687  00000-0  12404-3 0  9999,2 49763  53.2179 274.0171 0001613  53.4849 306.6292 15.08847033 37449,6917.859,95.437,540.84,538.6080000000002,0.0
49763.0,STARLINK-3198,PAYLOAD,2022-08-05 03:37:34,15.08843009,0.0001668,53.2178,271.3408,54.2272,305.8875,4.108600000000001e-05,3.66e-06,0.0,0 STARLINK-3198,1 49763U 21115AR  22217.15109327  .00000366  00000-0  41086-4 0  9999,2 49763  53.2178 271.3408 0001668  54.2272 305.8875 15.08843009 38640,6917.871,95.437,540.89,538.582,0.0
49763.0,STARLINK-3198,PAYLOAD,2022-08-05 09:59:07,15.08837956,0.0001675,53.2182,270.1514,53.9434,306.1713,-1.5943e-05,-5.42e-06,0.0,0 STARLINK-3198,1 49763U 21115AR  22217.41605768 -.00000542  00000-0 -15943-4 0  9999,2 49763  53.2182 270.1514 0001675  53.9434 306.1713 15.08837956 37574,6917.887,95.438,540.91,538.5930000000002,0.0
49763.0,STARLINK-3198,PAYLOAD,2022-08-05 14:45:16,15.08837553,0.0001647,53.2178,269.2596,54.6919,305.4227,-1.1249e-05,-4.67e-06,0.0,0 STARLINK-3198,1 49763U 21115AR  22217.61477762 -.00000467  00000-0 -11249-4 0  9993,2 49763  53.2178 269.2596 0001647  54.6919 305.4227 15.08837553 37602,6917.888000000001,95.438,540.8919999999998,538.613,0.0
49763.0,STARLINK-3198,PAYLOAD,2022-08-06 13:00:40,15.08843298,0.000166,53.2176,265.0969,52.9704,307.1439,-1.8569e-05,-5.84e-06,0.0,0 STARLINK-3198,1 49763U 21115AR  22218.54213348 -.00000584  00000-0 -18569-4 0  9996,2 49763  53.2176 265.0969 0001660  52.9704 307.1439 15.08843298 37748,6917.87,95.437,540.884,538.587,0.0
49763.0,STARLINK-3198,PAYLOAD,2022-08-07 03:19:08,15.08838787,0.0001636,53.2174,262.4204,50.1026,310.011,0.00011377,1.523e-05,0.0,0 STARLINK-3198,1 49763U 21115AR  22219.13829138  .00001523  00000-0  11377-3 0  9993,2 49763  53.2174 262.4204 0001636  50.1026 310.0110 15.08838787 38948,6917.884,95.438,540.881,538.617,0.0
49763.0,STARLINK-3198,PAYLOAD,2022-08-07 09:40:40,15.08841482,0.0001649,53.2175,261.2311,49.4512,310.6624,0.00011643,1.566e-05,0.0,0 STARLINK-3198,1 49763U 21115AR  22219.40325028  .00001566  00000-0  11643-3 0  9995,2 49763  53.2175 261.2311 0001649  49.4512 310.6624 15.08841482 37873,6917.876,95.437,540.882,538.6,0.0
49763.0,STARLINK-3198,PAYLOAD,2022-08-07 19:12:59,15.08840475,0.0001675,53.2174,259.447,49.6196,310.4942,8.937e-05,1.135e-05,0.0,0 STARLINK-3198,1 49763U 21115AR  22219.80069255  .00001135  00000-0  89370-4 0  9991,2 49763  53.2174 259.4470 0001675  49.6196 310.4942 15.08840475 37935,6917.879,95.438,540.903,538.585,0.0
49763.0,STARLINK-3198,PAYLOAD,2022-08-08 09:31:28,15.08836173,0.0001699,53.2178,256.7712,50.9999,309.1145,1.3608e-05,-7.2e-07,0.0,0 STARLINK-3198,1 49763U 21115AR  22220.39685850 -.00000072  00000-0  13608-4 0  9993,2 49763  53.2178 256.7712 0001699  50.9999 309.1145 15.08836173 38021,6917.892,95.438,540.932,538.582,0.0
49763.0,STARLINK-3198,PAYLOAD,2022-08-08 19:03:47,15.08840925,0.0001715,53.2181,254.9873,50.7935,309.3209,2.8882e-05,1.72e-06,0.0,0 STARLINK-3198,1 49763U 21115AR  22220.79429529  .00000172  00000-0  28882-4 0  9996,2 49763  53.2181 254.9873 0001715  50.7935 309.3209 15.08840925 38089,6917.878000000002,95.437,540.929,538.556,0.0
49763.0,STARLINK-3198,PAYLOAD,2022-08-09 03:00:42,15.08845429,0.0001689,53.2177,253.4998,49.0348,311.079,4.5401e-05,4.35e-06,0.0,0 STARLINK-3198,1 49763U 21115AR  22221.12549143  .00000435  00000-0  45401-4 0  9997,2 49763  53.2177 253.4998 0001689  49.0348 311.0790 15.08845429 39243,6917.864000000001,95.437,540.8969999999998,538.56,0.0
49763.0,STARLINK-3198,PAYLOAD,2022-08-09 12:33:01,15.08846534,0.0001717,53.2177,251.7157,49.4961,310.618,5.1864e-05,5.38e-06,0.0,0 STARLINK-3198,1 49763U 21115AR  22221.52292929  .00000538  00000-0  51864-4 0  9992,2 49763  53.2177 251.7157 0001717  49.4961 310.6180 15.08846534 38197,6917.86,95.437,540.913,538.538,0.0
49763.0,STARLINK-3198,PAYLOAD,2022-08-10 01:16:07,15.08828508,0.0001648,53.2173,249.3368,48.1244,311.9888,1.8314e-05,3e-08,0.0,0 STARLINK-3198,1 49763U 21115AR  22222.05286302  .00000003  00000-0  18314-4 0  9999,2 49763  53.2173 249.3368 0001648  48.1244 311.9888 15.08828508 39385,6917.916,95.438,540.9209999999998,538.64,0.0
49763.0,STARLINK-3198,PAYLOAD,2022-08-10 10:48:26,15.08832646,0.0001678,53.2173,247.5525,48.4705,311.643,3.922800000000001e-05,3.36e-06,0.0,0 STARLINK-3198,1 49763U 21115AR  22222.45030232  .00000336  00000-0  39228-4 0  9998,2 49763  53.2173 247.5525 0001678  48.4705 311.6430 15.08832646 38330,6917.903,95.438,540.929,538.607,0.0
49763.0,STARLINK-3198,PAYLOAD,2022-08-11 01:06:54,15.08836402,0.0001875,53.2176,244.8757,44.5956,315.5187,1.928e-05,1.9e-07,0.0,0 STARLINK-3198,1 49763U 21115AR  22223.04646291  .00000019  00000-0  19280-4 0  9996,2 49763  53.2176 244.8757 0001875  44.5956 315.5187 15.08836402 39533,6917.891,95.438,541.053,538.4590000000002,0.0
49763.0,STARLINK-3198,PAYLOAD,2022-08-11 10:39:13,15.08837518,0.0001923,53.2178,243.0917,51.1012,309.0151,4.1664e-05,3.75e-06,0.0,0 STARLINK-3198,1 49763U 21115AR  22223.44390251  .00000375  00000-0  41664-4 0  9998,2 49763  53.2178 243.0917 0001923  51.1012 309.0151 15.08837518 38486,6917.888000000001,95.438,541.0830000000002,538.423,0.0
49763.0,STARLINK-3198,PAYLOAD,2022-08-12 05:43:50,15.08839935,0.0001909999999999,53.2175,239.5233,48.9918,311.124,0.00012094,1.637e-05,0.0,0 STARLINK-3198,1 49763U 21115AR  22224.23878067  .00001637  00000-0  12094-3 0  9998,2 49763  53.2175 239.5233 0001910  48.9918 311.1240 15.08839935 39714,6917.880999999999,95.438,541.067,538.424,0.0
49763.0,STARLINK-3198,PAYLOAD,2022-08-12 10:29:59,15.08841975,0.0001878,53.2173,238.631,50.6451,309.4707,0.00013375,1.841e-05,0.0,0 STARLINK-3198,1 49763U 21115AR  22224.43749921  .00001841  00000-0  13375-3 0  9996,2 49763  53.2173 238.6310 0001878  50.6451 309.4707 15.08841975 38638,6917.874,95.437,541.039,538.44,0.0
49763.0,STARLINK-3198,PAYLOAD,2022-08-12 18:26:55,15.08844466,0.0001893,53.2173,237.1443,50.6473,309.4687,0.00013457,1.854e-05,0.0,0 STARLINK-3198,1 49763U 21115AR  22224.76869737  .00001854  00000-0  13457-3 0  9995,2 49763  53.2173 237.1443 0001893  50.6473 309.4687 15.08844466 38680,6917.8669999999975,95.437,541.0409999999998,538.422,0.0
49763.0,STARLINK-3198,PAYLOAD,2022-08-13 11:56:10,15.08835599,0.0001867,53.2178,233.8738,45.8523,314.2622,-2.2748e-06,-3.24e-06,0.0,0 STARLINK-3198,1 49763U 21115AR  22225.49734500 -.00000324  00000-0 -22748-5 0  9993,2 49763  53.2178 233.8738 0001867  45.8523 314.2622 15.08835599 38790,6917.894,95.438,541.05,538.467,0.0
49763.0,STARLINK-3198,PAYLOAD,2022-08-14 11:46:57,15.0884107,0.0001914,53.2175,229.4131,47.677,312.4384,1.0696e-06,-2.71e-06,0.0,0 STARLINK-3198,1 49763U 21115AR  22226.49094164 -.00000271  00000-0  10696-5 0  9998,2 49763  53.2175 229.4131 0001914  47.6770 312.4384 15.08841070 40050,6917.877,95.437,541.066,538.418,0.0
49763.0,STARLINK-3198,PAYLOAD,2022-08-15 10:02:21,15.08830512,0.0002048,53.2171,225.25,48.2503,311.8664,5.1344e-05,5.29e-06,0.0,0 STARLINK-3198,1 49763U 21115AR  22227.41830636  .00000529  00000-0  51344-4 0  9992,2 49763  53.2171 225.2500 0002048  48.2503 311.8664 15.08830512 39084,6917.909000000002,95.438,541.191,538.3580000000002,0.0
49763.0,STARLINK-3198,PAYLOAD,2022-08-16 09:53:09,15.08831101,0.0002003,53.2172,220.7901,50.7668,309.3501,1.7823e-05,-5e-08,0.0,0 STARLINK-3198,1 49763U 21115AR  22228.41191514 -.00000005  00000-0  17823-4 0  9992,2 49763  53.2172 220.7901 0002003  50.7668 309.3501 15.08831101 39235,6917.908,95.438,541.158,538.387,0.0
49763.0,STARLINK-3198,PAYLOAD,2022-08-16 16:14:42,15.088326,0.0002,53.2172,219.6007,51.0951,309.0219,2.372300000000001e-05,8.9e-07,0.0,0 STARLINK-3198,1 49763U 21115AR  22228.67687563  .00000089  00000-0  23723-4 0  9991,2 49763  53.2172 219.6007 0002000  51.0951 309.0219 15.08832600 40381,6917.903,95.438,541.1519999999998,538.384,0.0
49763.0,STARLINK-3198,PAYLOAD,2022-08-17 08:08:33,15.08845294,0.0001961,53.2174,216.627,53.1799,306.9372,-4.459300000000001e-05,-9.98e-06,0.0,0 STARLINK-3198,1 49763U 21115AR  22229.33927308 -.00000998  00000-0 -44593-4 0  9998,2 49763  53.2174 216.6270 0001961  53.1799 306.9372 15.08845294 40480,6917.864000000001,95.437,541.086,538.373,0.0
49763.0,STARLINK-3198,PAYLOAD,2022-08-18 11:10:06,15.08846564,0.0002046999999999,53.2175,211.5717,53.3132,306.8048,0.00021972,3.211e-05,0.0,0 STARLINK-3198,1 49763U 21115AR  22230.46535184  .00003211  00000-0  21972-3 0  9995,2 49763  53.2175 211.5717 0002047  53.3132 306.8048 15.08846564 39545,6917.86,95.437,541.141,538.309,0.0
